ALOS (DAICHI)           
1 28931U 06002A   25337.77527441  .00002261  00000+0  39011-3 0  9995
2 28931  98.1077 289.3267 0000744 104.5064 255.6225 14.69441899 59397
H-2A R/B                
1 28932U 06002B   25337.33688066  .00014551  00000+0  77007-3 0  9991
2 28932  98.2309 111.3196 0054560 208.4189 151.4063 15.14256927 79841
RESURS-DK 1             
1 29228U 06021A   25337.76767515  .00004765  00000+0  28220-3 0  9994
2 29228  69.9328 125.0216 0007826 265.1820  94.8452 15.12077009 73022
CZ-4B R/B               
1 29507U 06046C   25337.79125284  .00008258  00000+0  43099-3 0  9997
2 29507  97.5746  17.9546 0032800 238.5211 121.2815 15.15725273 45513
CZ-2C R/B               
1 31114U 07010B   25337.34848760  .00000264  00000+0  14055-3 0  9997
2 31114  98.3973  90.4721 0058477 213.4462 146.3016 14.20203342966044
COSMO-SKYMED 1          
1 31598U 07023A   25337.48920454  .00005220  00000+0  47470-3 0  9997
2 31598  97.8841 162.8283 0001429  80.9890 279.1492 14.95656321   528
COSMOS 2428             
1 31792U 07029A   25337.46384089  .00000027  00000+0  40414-4 0  9997
2 31792  70.9373  45.3552 0003144  37.4012 322.7327 14.12886979950506
SL-16 R/B               
1 31793U 07029B   25337.48994602 -.00000166  00000+0 -61352-4 0  9998
2 31793  70.9769  14.6021 0002439 265.9046 201.5189 14.14816225951765
KORONAS-FOTON           
1 33504U 09003A   25337.14419118  .00015101  00000+0  36590-3 0  9999
2 33504  82.4326  16.0469 0012674 139.1917 221.0280 15.40861902930866
CZ-2C R/B               
1 37731U 11030B   25337.87661096  .00002813  00000+0  36318-3 0  9996
2 37731  97.8396 292.1802 0051707 303.2715 113.8213 14.80851682775911
H-2A R/B                
1 38341U 12025E   25337.46657267  .00004901  00000+0  45341-3 0  9995
2 38341  98.4578 291.9829 0043934 267.6903  91.9284 14.94344662733849
SHIJIAN-16 (SJ-16)      
1 39358U 13057A   25337.88504606  .00001803  00000+0  18049-3 0  9997
2 39358  74.9736   6.4082 0017372 340.6981  19.3546 14.91950076657218
